GLOBALSTAR M045         
1 25676U 99019A   25190.85374104 -.00000038  00000+0  48829-3 0  9998
2 25676  51.9949 240.6669 0000463 205.0786 326.6979 12.27063718196172
GLOBALSTAR M019         
1 25677U 99019B   25190.81697174 -.00000034  00000+0  58108-3 0  9997
2 25677  51.9896  12.7270 0001622  40.3117 333.5282 12.13873092187898
GLOBALSTAR M044         
1 25678U 99019C   25190.87308413 -.00000074  00000+0  13018-3 0  9994
2 25678  51.9995 326.7723 0006776  87.7755  51.7461 11.90255089174021
GLOBALSTAR M042         
1 25679U 99019D   25190.90514120 -.00000098  00000+0 -54111-4 0  9990
2 25679  52.0036 346.8212 0002699   2.7634 158.4824 12.22084188188107
GLOBALSTAR M025         
1 25770U 99031A   25190.92736448 -.00000075  00000+0 -23105-3 0  9990
2 25770  51.9813 106.5920 0001163 184.0260 255.2932 11.22559343484262
GLOBALSTAR M049         
1 25771U 99031B   25190.90923695 -.00000110  00000+0 -15392-2 0  9999
2 25771  51.9855 142.5395 0003141  38.6485 321.4536 11.12117061119959
GLOBALSTAR M047         
1 25772U 99031C   25190.84436114 -.00000089  00000+0 -53928-3 0  9991
2 25772  51.9814 137.4907 0016768 303.0882  56.8313 11.31928938473674
GLOBALSTAR M052         
1 25773U 99031D   25190.93503028 -.00000015  00000+0  17082-2 0  9999
2 25773  51.9848 250.8382 0003004 210.2132 320.2733 11.15059924481041
